IRIDIUM 921             
1 24873U 97034E   24297.51779783  .00096592  00000+0  14063-2 0  9994
2 24873  86.3776 223.9298 0009551  93.4648 266.7707 15.55351212495005
IRIDIUM 26              
1 24903U 97043A   24297.49682615  .00001032  00000+0  34385-3 0  9997
2 24903  86.4017 209.9176 0002376  87.3786 272.7683 14.36714510422754
IRIDIUM 22              
1 24907U 97043E   24297.51317858  .00000978  00000+0  33281-3 0  9990
2 24907  86.4018 213.2452 0002302  81.9265 278.2192 14.35575318422818
DUMMY MASS 1            
1 24925U 97048A   24297.57759764  .00001191  00000+0  13154-3 0  9992
2 24925  86.3342 244.6245 0004192 263.8197  96.2550 14.86533061469978
DUMMY MASS 2            
1 24926U 97048B   24297.56786492  .00001179  00000+0  13096-3 0  9991
2 24926  86.3339 246.1942 0005023 281.0849  78.9811 14.86288352469759
IRIDIUM 29              
1 24944U 97051A   24297.61530123  .00001050  00000+0  35475-3 0  9992
2 24944  86.3955 243.0244 0002239  80.1324 280.0126 14.36024178419317
IRIDIUM 33              
1 24946U 97051C   24297.55649097  .00000785  00000+0  27110-3 0  9999
2 24946  86.3872 242.2956 0009680 120.9577 239.2571 14.34586844418813
IRIDIUM 28              
1 24948U 97051E   24297.60366365  .00001039  00000+0  34427-3 0  9993
2 24948  86.3966 240.6788 0002670  92.2717 267.8786 14.36971877419860
